IRIDIUM 7               
1 24793U 97020B   24212.94068194  .00000779  00000+0  26502-3 0  9995
2 24793  86.3980 311.5096 0002445  95.1427 265.0048 14.35317781425803
IRIDIUM 5               
1 24795U 97020D   24212.92262998  .00005436  00000+0  51147-3 0  9991
2 24795  86.3898 231.0958 0119639 205.7463 153.7780 14.88321682437575
IRIDIUM 4               
1 24796U 97020E   24212.77997119  .00000831  00000+0  27807-3 0  9995
2 24796  86.3973 308.6663 0002256  97.9894 262.1559 14.36246057426324
IRIDIUM 914             
1 24836U 97030A   24212.83264609  .00000961  00000+0  29833-3 0  9994
2 24836  86.3964 318.1991 0002387 139.5914 220.5463 14.40117882560868
IRIDIUM 16              
1 24841U 97030F   24212.87255563  .00000947  00000+0  30696-3 0  9996
2 24841  86.4070 340.2686 0003864  66.9823 293.1782 14.38004982420816
IRIDIUM 911             
1 24842U 97030G   24212.81504823  .00001344  00000+0  36616-3 0  9997
2 24842  86.4495 339.3804 0016451  89.8195 270.4893 14.46677456428608
IRIDIUM 17              
1 24870U 97034B   24212.93888915  .00000992  00000+0  32774-3 0  9991
2 24870  86.3976   9.8115 0002283  48.4206 311.7186 14.37094255417431
IRIDIUM 920             
1 24871U 97034C   24212.90422866  .00000987  00000+0  30206-3 0  9990
2 24871  86.4007 349.8110 0013470  66.7513 293.5103 14.40814053420568
